FLOCK 4Q-11             
1 58273U 23174T   26074.20216370  .00030585  00000+0  63757-3 0  9993
2 58273  97.3897 160.9116 0007711 139.8484 220.3336 15.45490745131050
FLOCK 4Q-36             
1 58274U 23174U   26074.22143921  .00031329  00000+0  52950-3 0  9997
2 58274  97.3870 163.6408 0007810 127.9623 232.2336 15.51518478131232
FLOCK 4Q-12             
1 58275U 23174V   26074.22536348  .00090965  00000+0  14405-2 0  9990
2 58275  97.3876 163.5417 0004926 139.6096 220.5524 15.53095272131252
FLOCK 4Q-28             
1 58280U 23174AA  26074.18591606  .00035664  00000+0  64809-3 0  9998
2 58280  97.3908 162.7022 0007325 135.2215 224.9628 15.49440790131165
FLOCK 4Q-27             
1 58282U 23174AC  26074.18183197  .00032961  00000+0  60013-3 0  9992
2 58282  97.3838 162.2310 0006913 133.1190 227.0641 15.49404570131171
FLOCK 4Q-26             
1 58284U 23174AE  26074.21416698  .00035834  00000+0  61037-3 0  9992
2 58284  97.3894 163.7186 0007327 132.4069 227.7804 15.51276413131230
FLOCK 4Q-31             
1 58285U 23174AF  26074.18231959  .00042676  00000+0  73588-3 0  9990
2 58285  97.3935 163.3281 0007623 135.0124 225.1746 15.50891657131182
FLOCK 4Q-30             
1 58286U 23174AG  26074.23411380  .00044970  00000+0  76971-3 0  9993
2 58286  97.3952 163.5645 0007097 134.6490 225.5342 15.51094002131203
PELICAN-1               
1 58296U 23174AS  26072.22151359  .00029201  00000+0  31803-3 0  9993
2 58296  97.3987 167.1452 0009663 250.9049 109.1163 15.63326024131114
FLOCK 4Q-25             
1 58303U 23174AZ  26074.18676980  .00051076  00000+0  70193-3 0  9991
2 58303  97.3858 164.4455 0005291 119.0349 241.1437 15.57135536131327
FLOCK 4Q-29             
1 58304U 23174BA  26074.26720053  .00038527  00000+0  68699-3 0  9996
2 58304  97.3935 163.1809 0007335 125.5522 234.6415 15.49964703131183
FLOCK 4Q-22             
1 58306U 23174BC  26074.21790269  .00046261  00000+0  74819-3 0  9994
2 58306  97.3837 163.3288 0006113 129.6975 230.4817 15.52684982131259
FLOCK 4Q-23             
1 58307U 23174BD  26074.22784864  .00049329  00000+0  70895-3 0  9998
2 58307  97.3954 164.9382 0006682 123.7241 236.4652 15.55920876131299
FLOCK 4Q-33             
1 58308U 23174BE  26074.20759087  .00041807  00000+0  70021-3 0  9990
2 58308  97.3871 163.2480 0007417 117.6032 242.5974 15.51718204131231
FLOCK 4Q-35             
1 58309U 23174BF  26074.19829230  .00038929  00000+0  67776-3 0  9991
2 58309  97.3896 163.3961 0007812 131.8653 228.3266 15.50637161131215
FLOCK 4Q-34             
1 58316U 23174BN  26074.23794928  .00053431  00000+0  76034-3 0  9991
2 58316  97.3846 164.3420 0006477 124.0418 236.1452 15.56173684131303
