[{"OBJECT_NAME":"FLOCK 4Q-11","OBJECT_ID":"2023-174T","EPOCH":"2026-03-15T04:51:06.943680","MEAN_MOTION":15.45490745,"ECCENTRICITY":0.00077118,"INCLINATION":97.3897,"RA_OF_ASC_NODE":160.9116,"ARG_OF_PERICENTER":139.8484,"MEAN_ANOMALY":220.3336,"EPHEMERIS_TYPE":0,"CLASSIFICATION_TYPE":"U","NORAD_CAT_ID":58273,"ELEMENT_SET_NO":999,"REV_AT_EPOCH":13105,"BSTAR":0.0006375712,"MEAN_MOTION_DOT":0.00030585,"MEAN_MOTION_DDOT":0},{"OBJECT_NAME":"FLOCK 4Q-36","OBJECT_ID":"2023-174U","EPOCH":"2026-03-15T05:18:52.347744","MEAN_MOTION":15.51518478,"ECCENTRICITY":0.00078108,"INCLINATION":97.387,"RA_OF_ASC_NODE":163.6408,"ARG_OF_PERICENTER":127.9623,"MEAN_ANOMALY":232.2336,"EPHEMERIS_TYPE":0,"CLASSIFICATION_TYPE":"U","NORAD_CAT_ID":58274,"ELEMENT_SET_NO":999,"REV_AT_EPOCH":13123,"BSTAR":0.00052950478,"MEAN_MOTION_DOT":0.00031329,"MEAN_MOTION_DDOT":0},{"OBJECT_NAME":"FLOCK 4Q-12","OBJECT_ID":"2023-174V","EPOCH":"2026-03-15T05:24:31.404672","MEAN_MOTION":15.53095272,"ECCENTRICITY":0.00049262,"INCLINATION":97.3876,"RA_OF_ASC_NODE":163.5417,"ARG_OF_PERICENTER":139.6096,"MEAN_ANOMALY":220.5524,"EPHEMERIS_TYPE":0,"CLASSIFICATION_TYPE":"U","NORAD_CAT_ID":58275,"ELEMENT_SET_NO":999,"REV_AT_EPOCH":13125,"BSTAR":0.0014405064,"MEAN_MOTION_DOT":0.00090965,"MEAN_MOTION_DDOT":0},{"OBJECT_NAME":"FLOCK 4Q-28","OBJECT_ID":"2023-174AA","EPOCH":"2026-03-15T04:27:43.147584","MEAN_MOTION":15.4944079,"ECCENTRICITY":0.00073258,"INCLINATION":97.3908,"RA_OF_ASC_NODE":162.7022,"ARG_OF_PERICENTER":135.2215,"MEAN_ANOMALY":224.9628,"EPHEMERIS_TYPE":0,"CLASSIFICATION_TYPE":"U","NORAD_CAT_ID":58280,"ELEMENT_SET_NO":999,"REV_AT_EPOCH":13116,"BSTAR":0.00064809378,"MEAN_MOTION_DOT":0.00035664,"MEAN_MOTION_DDOT":0},{"OBJECT_NAME":"FLOCK 4Q-27","OBJECT_ID":"2023-174AC","EPOCH":"2026-03-15T04:21:50.282208","MEAN_MOTION":15.4940457,"ECCENTRICITY":0.00069132,"INCLINATION":97.3838,"RA_OF_ASC_NODE":162.231,"ARG_OF_PERICENTER":133.119,"MEAN_ANOMALY":227.0641,"EPHEMERIS_TYPE":0,"CLASSIFICATION_TYPE":"U","NORAD_CAT_ID":58282,"ELEMENT_SET_NO":999,"REV_AT_EPOCH":13117,"BSTAR":0.00060013324,"MEAN_MOTION_DOT":0.00032961,"MEAN_MOTION_DDOT":0},{"OBJECT_NAME":"FLOCK 4Q-26","OBJECT_ID":"2023-174AE","EPOCH":"2026-03-15T05:08:24.027072","MEAN_MOTION":15.51276413,"ECCENTRICITY":0.00073272,"INCLINATION":97.3894,"RA_OF_ASC_NODE":163.7186,"ARG_OF_PERICENTER":132.4069,"MEAN_ANOMALY":227.7804,"EPHEMERIS_TYPE":0,"CLASSIFICATION_TYPE":"U","NORAD_CAT_ID":58284,"ELEMENT_SET_NO":999,"REV_AT_EPOCH":13123,"BSTAR":0.00061037115,"MEAN_MOTION_DOT":0.00035834,"MEAN_MOTION_DDOT":0},{"OBJECT_NAME":"FLOCK 4Q-31","OBJECT_ID":"2023-174AF","EPOCH":"2026-03-15T04:22:32.412576","MEAN_MOTION":15.50891657,"ECCENTRICITY":0.00076236,"INCLINATION":97.3935,"RA_OF_ASC_NODE":163.3281,"ARG_OF_PERICENTER":135.0124,"MEAN_ANOMALY":225.1746,"EPHEMERIS_TYPE":0,"CLASSIFICATION_TYPE":"U","NORAD_CAT_ID":58285,"ELEMENT_SET_NO":999,"REV_AT_EPOCH":13118,"BSTAR":0.0007358801,"MEAN_MOTION_DOT":0.00042676,"MEAN_MOTION_DDOT":0},{"OBJECT_NAME":"FLOCK 4Q-30","OBJECT_ID":"2023-174AG","EPOCH":"2026-03-15T05:37:07.432320","MEAN_MOTION":15.51094002,"ECCENTRICITY":0.0007097,"INCLINATION":97.3952,"RA_OF_ASC_NODE":163.5645,"ARG_OF_PERICENTER":134.649,"MEAN_ANOMALY":225.5342,"EPHEMERIS_TYPE":0,"CLASSIFICATION_TYPE":"U","NORAD_CAT_ID":58286,"ELEMENT_SET_NO":999,"REV_AT_EPOCH":13120,"BSTAR":0.00076971398,"MEAN_MOTION_DOT":0.0004497,"MEAN_MOTION_DDOT":0},{"OBJECT_NAME":"PELICAN-1","OBJECT_ID":"2023-174AS","EPOCH":"2026-03-13T05:18:58.774176","MEAN_MOTION":15.63326024,"ECCENTRICITY":0.00096635,"INCLINATION":97.3987,"RA_OF_ASC_NODE":167.1452,"ARG_OF_PERICENTER":250.9049,"MEAN_ANOMALY":109.1163,"EPHEMERIS_TYPE":0,"CLASSIFICATION_TYPE":"U","NORAD_CAT_ID":58296,"ELEMENT_SET_NO":999,"REV_AT_EPOCH":13111,"BSTAR":0.00031803204,"MEAN_MOTION_DOT":0.00029201,"MEAN_MOTION_DDOT":0},{"OBJECT_NAME":"FLOCK 4Q-25","OBJECT_ID":"2023-174AZ","EPOCH":"2026-03-15T04:28:56.910720","MEAN_MOTION":15.57135536,"ECCENTRICITY":0.00052914,"INCLINATION":97.3858,"RA_OF_ASC_NODE":164.4455,"ARG_OF_PERICENTER":119.0349,"MEAN_ANOMALY":241.1437,"EPHEMERIS_TYPE":0,"CLASSIFICATION_TYPE":"U","NORAD_CAT_ID":58303,"ELEMENT_SET_NO":999,"REV_AT_EPOCH":13132,"BSTAR":0.00070193408,"MEAN_MOTION_DOT":0.00051076,"MEAN_MOTION_DDOT":0},{"OBJECT_NAME":"FLOCK 4Q-29","OBJECT_ID":"2023-174BA","EPOCH":"2026-03-15T06:24:46.125792","MEAN_MOTION":15.49964703,"ECCENTRICITY":0.00073354,"INCLINATION":97.3935,"RA_OF_ASC_NODE":163.1809,"ARG_OF_PERICENTER":125.5522,"MEAN_ANOMALY":234.6415,"EPHEMERIS_TYPE":0,"CLASSIFICATION_TYPE":"U","NORAD_CAT_ID":58304,"ELEMENT_SET_NO":999,"REV_AT_EPOCH":13118,"BSTAR":0.00068698514,"MEAN_MOTION_DOT":0.00038527,"MEAN_MOTION_DDOT":0},{"OBJECT_NAME":"FLOCK 4Q-22","OBJECT_ID":"2023-174BC","EPOCH":"2026-03-15T05:13:46.792416","MEAN_MOTION":15.52684982,"ECCENTRICITY":0.00061137,"INCLINATION":97.3837,"RA_OF_ASC_NODE":163.3288,"ARG_OF_PERICENTER":129.6975,"MEAN_ANOMALY":230.4817,"EPHEMERIS_TYPE":0,"CLASSIFICATION_TYPE":"U","NORAD_CAT_ID":58306,"ELEMENT_SET_NO":999,"REV_AT_EPOCH":13125,"BSTAR":0.00074819241,"MEAN_MOTION_DOT":0.00046261,"MEAN_MOTION_DDOT":0},{"OBJECT_NAME":"FLOCK 4Q-23","OBJECT_ID":"2023-174BD","EPOCH":"2026-03-15T05:28:06.122496","MEAN_MOTION":15.55920876,"ECCENTRICITY":0.00066822,"INCLINATION":97.3954,"RA_OF_ASC_NODE":164.9382,"ARG_OF_PERICENTER":123.7241,"MEAN_ANOMALY":236.4652,"EPHEMERIS_TYPE":0,"CLASSIFICATION_TYPE":"U","NORAD_CAT_ID":58307,"ELEMENT_SET_NO":999,"REV_AT_EPOCH":13129,"BSTAR":0.00070895482,"MEAN_MOTION_DOT":0.00049329,"MEAN_MOTION_DDOT":0},{"OBJECT_NAME":"FLOCK 4Q-33","OBJECT_ID":"2023-174BE","EPOCH":"2026-03-15T04:58:55.851168","MEAN_MOTION":15.51718204,"ECCENTRICITY":0.00074174,"INCLINATION":97.3871,"RA_OF_ASC_NODE":163.248,"ARG_OF_PERICENTER":117.6032,"MEAN_ANOMALY":242.5974,"EPHEMERIS_TYPE":0,"CLASSIFICATION_TYPE":"U","NORAD_CAT_ID":58308,"ELEMENT_SET_NO":999,"REV_AT_EPOCH":13123,"BSTAR":0.00070020781,"MEAN_MOTION_DOT":0.00041807,"MEAN_MOTION_DDOT":0},{"OBJECT_NAME":"FLOCK 4Q-35","OBJECT_ID":"2023-174BF","EPOCH":"2026-03-15T04:45:32.454720","MEAN_MOTION":15.50637161,"ECCENTRICITY":0.00078121,"INCLINATION":97.3896,"RA_OF_ASC_NODE":163.3961,"ARG_OF_PERICENTER":131.8653,"MEAN_ANOMALY":228.3266,"EPHEMERIS_TYPE":0,"CLASSIFICATION_TYPE":"U","NORAD_CAT_ID":58309,"ELEMENT_SET_NO":999,"REV_AT_EPOCH":13121,"BSTAR":0.00067775668,"MEAN_MOTION_DOT":0.00038929,"MEAN_MOTION_DDOT":0},{"OBJECT_NAME":"FLOCK 4Q-34","OBJECT_ID":"2023-174BN","EPOCH":"2026-03-15T05:42:38.817792","MEAN_MOTION":15.56173684,"ECCENTRICITY":0.0006477,"INCLINATION":97.3846,"RA_OF_ASC_NODE":164.342,"ARG_OF_PERICENTER":124.0418,"MEAN_ANOMALY":236.1452,"EPHEMERIS_TYPE":0,"CLASSIFICATION_TYPE":"U","NORAD_CAT_ID":58316,"ELEMENT_SET_NO":999,"REV_AT_EPOCH":13130,"BSTAR":0.00076034033,"MEAN_MOTION_DOT":0.00053431,"MEAN_MOTION_DDOT":0}]
